NORAD_CAT_ID,OBJECT_NAME,OBJECT_TYPE,EPOCH,MEAN_MOTION,ECCENTRICITY,INCLINATION,RA_OF_ASC_NODE,ARG_OF_PERICENTER,MEAN_ANOMALY,BSTAR,MEAN_MOTION_DOT,MEAN_MOTION_DDOT,TLE_LINE0,TLE_LINE1,TLE_LINE2,SEMIMAJOR_AXIS,PERIOD,APOGEE,PERIGEE,DECAYED
53868.0,STARLINK-4789,PAYLOAD,2023-04-24 14:00:01,15.07211903,0.0001163,53.2169,298.0495,90.9985,307.9432,-0.00089518,-0.00013886,0.0,0 STARLINK-4789,1 53868U 22114BC  23114.58334491 -.00013886  00000-0 -89518-3 0  9990,2 53868  53.2169 298.0495 0001163  90.9985 307.9432 15.07211903  1307,6922.861,95.541,545.531,543.921,0.0
53868.0,STARLINK-4789,PAYLOAD,2023-04-25 14:00:01,15.07177694,0.0001227,53.2174,293.5719,111.8483,315.9756,0.00011076,1.402e-05,0.0,0 STARLINK-4789,1 53868U 22114BC  23115.58335648  .00001402  00000-0  11076-3 0  9999,2 53868  53.2174 293.5719 0001227 111.8483 315.9756 15.07177694 34479,6922.966,95.543,545.681,543.982,0.0
53868.0,STARLINK-4789,PAYLOAD,2023-04-26 14:00:01,15.07242799,0.0001162,53.2176,289.0946,115.8727,340.7221,-0.0014965,-0.00023013,0.0,0 STARLINK-4789,1 53868U 22114BC  23116.58334491 -.00023013  00000-0 -14965-2 0  9998,2 53868  53.2176 289.0946 0001162 115.8727 340.7221 15.07242799  1304,6922.767,95.539,545.436,543.827,0.0
53868.0,STARLINK-4789,PAYLOAD,2023-04-27 00:00:00,15.07209691,9.88e-05,53.2172,287.2299,102.0429,96.6317,0.00096209,0.00014393,0.0,0 STARLINK-4789,1 53868U 22114BC  23117.00001157  .00014393  00000-0  96209-3 0  9997,2 53868  53.2172 287.2299 0000988 102.0429  96.6317 15.07209691  1300,6922.868,95.541,545.417,544.049,0.0
53868.0,STARLINK-4789,PAYLOAD,2023-04-27 14:00:01,15.07251993,0.000101,53.2174,284.617,110.2095,15.3992,-0.0026326,-0.00040181,0.0,0 STARLINK-4789,1 53868U 22114BC  23117.58335648 -.00040181  00000-0 -26326-2 0  9993,2 53868  53.2174 284.6170 0001010 110.2095  15.3992 15.07251993  1307,6922.739,95.538,545.303,543.904,0.0
53868.0,STARLINK-4789,PAYLOAD,2023-04-28 00:00:00,15.07194057,8.73e-05,53.2168,282.7521,85.571,142.0761,-0.00011711,-2.065e-05,0.0,0 STARLINK-4789,1 53868U 22114BC  23118.00001157 -.00002065  00000-0 -11711-3 0  9998,2 53868  53.2168 282.7521 0000873  85.5710 142.0761 15.07194057 34836,6922.916,95.542,545.385,544.177,0.0
53868.0,STARLINK-4789,PAYLOAD,2023-04-28 03:46:08,15.07207984,0.0001532,53.2167,282.049,87.088,273.0287,6.3422e-05,6.82e-06,0.0,0 STARLINK-4789,1 53868U 22114BC  23118.15704304  .00000682  00000-0  63422-4 0  9996,2 53868  53.2167 282.0490 0001532  87.0880 273.0287 15.07207984 35407,6922.873,95.541,545.799,543.678,0.0
53868.0,STARLINK-4789,PAYLOAD,2023-04-29 03:38:28,15.07206303,4.31e-05,53.2182,277.5943,135.2522,224.8505,-0.00010624,-1.9e-05,0.0,0 STARLINK-4789,1 53868U 22114BC  23119.15172010 -.00001900  00000-0 -10624-3 0  9991,2 53868  53.2182 277.5943 0000431 135.2522 224.8505 15.07206303 35010,6922.878,95.541,545.042,544.445,0.0
53868.0,STARLINK-4789,PAYLOAD,2023-04-29 19:33:21,15.07219338,9.17e-05,53.2176,274.6238,90.6539,269.4558,-6.7993e-05,-1.318e-05,0.0,0 STARLINK-4789,1 53868U 22114BC  23119.81483010 -.00001318  00000-0 -67993-4 0  9994,2 53868  53.2176 274.6238 0000917  90.6539 269.4558 15.07219338 35115,6922.839,95.54,545.338,544.069,0.0
53868.0,STARLINK-4789,PAYLOAD,2023-04-30 13:03:44,15.07199495,0.0001016,53.2168,271.358,105.0335,255.0769,1.0118e-05,-1.29e-06,0.0,0 STARLINK-4789,1 53868U 22114BC  23120.54426813 -.00000129  00000-0  10118-4 0  9999,2 53868  53.2168 271.3580 0001016 105.0335 255.0769 15.07199495 35763,6922.899,95.541,545.468,544.061,0.0
53868.0,STARLINK-4789,PAYLOAD,2023-04-30 14:39:14,15.07199978,0.0001022,53.2167,271.0608,110.0006,250.1095,1.2787e-05,-8.9e-07,0.0,0 STARLINK-4789,1 53868U 22114BC  23120.61057953 -.00000089  00000-0  12787-4 0  9991,2 53868  53.2167 271.0608 0001022 110.0006 250.1095 15.07199978 35234,6922.898,95.541,545.47,544.055,0.0
53868.0,STARLINK-4789,PAYLOAD,2023-04-30 19:25:41,15.07208381,0.0001158,53.2168,270.1687,145.2092,214.8975,1.9487e-05,1.3e-07,0.0,0 STARLINK-4789,1 53868U 22114BC  23120.80950785  .00000013  00000-0  19487-4 0  9997,2 53868  53.2168 270.1687 0001158 145.2092 214.8975 15.07208381 35263,6922.872,95.541,545.539,543.935,0.0
53868.0,STARLINK-4789,PAYLOAD,2023-05-01 12:56:03,15.07223779,0.0001359,53.2177,266.9018,114.4503,245.663,0.00017511,2.384e-05,0.0,0 STARLINK-4789,1 53868U 22114BC  23121.53892628  .00002384  00000-0  17511-3 0  9997,2 53868  53.2177 266.9018 0001359 114.4503 245.6630 15.07223779 35912,6922.825,95.54,545.631,543.749,0.0
53868.0,STARLINK-4789,PAYLOAD,2023-05-01 16:06:56,15.07286076,9.36e-05,53.2169,266.3081,126.6509,233.4569,0.00064853,9.624e-05,0.0,0 STARLINK-4789,1 53868U 22114BC  23121.67149210  .00009624  00000-0  64853-3 0  9999,2 53868  53.2169 266.3081 0000936 126.6509 233.4569 15.07286076 35395,6922.634,95.536,545.147,543.851,0.0
53868.0,STARLINK-4789,PAYLOAD,2023-05-02 12:47:45,15.0756434,0.0002831,53.2174,262.4449,23.3129,336.7991,0.0025467,0.0003908,0.0,0 STARLINK-4789,1 53868U 22114BC  23122.53316128  .00039080  00000-0  25467-2 0  9995,2 53868  53.2174 262.4449 0002831  23.3129 336.7991 15.07564340 35527,6921.782,95.518,545.607,541.688,0.0
53868.0,STARLINK-4789,PAYLOAD,2023-05-02 19:09:09,15.0789973,0.0001078,53.2173,261.2554,98.8191,261.2923,0.0051067,0.00079828,0.0,0 STARLINK-4789,1 53868U 22114BC  23122.79802332  .00079828  00000-0  51067-2 0  9999,2 53868  53.2173 261.2554 0001078  98.8191 261.2923 15.07899730 35563,6920.756,95.497,543.367,541.875,0.0
53868.0,STARLINK-4789,PAYLOAD,2023-05-02 23:55:17,15.08050421,0.0002435,53.217,260.3625,167.2424,192.8629,0.0060757,0.00095637,0.0,0 STARLINK-4789,1 53868U 22114BC  23122.99673609  .00095637  00000-0  60757-2 0  9996,2 53868  53.2170 260.3625 0002435 167.2424 192.8629 15.08050421 35599,6920.295,95.488,543.845,540.475,0.0
53868.0,STARLINK-4789,PAYLOAD,2023-05-03 14:00:01,15.08846982,0.0001488,53.2173,257.7361,84.4357,221.8618,-0.00181,-0.00028984,0.0,0 STARLINK-4789,1 53868U 22114BC  23123.58334491 -.00028984  00000-0 -18100-2 0  9993,2 53868  53.2173 257.7361 0001488  84.4357 221.8618 15.08846982 35687,6917.859,95.437,540.753,538.695,0.0
53868.0,STARLINK-4789,PAYLOAD,2023-05-03 22:00:00,15.08824252,0.0001402,53.2171,256.24,86.1073,231.7623,0.00095711,0.00014971,0.0,0 STARLINK-4789,1 53868U 22114BC  23123.91667824  .00014971  00000-0  95711-3 0  9992,2 53868  53.2171 256.2400 0001402  86.1073 231.7623 15.08824252  1307,6917.929,95.439,540.763,538.824,0.0
53868.0,STARLINK-4789,PAYLOAD,2023-05-04 14:00:01,15.08880259,0.0001303,53.2175,253.2471,90.1422,250.9589,-0.0047113,-0.00074574,0.0,0 STARLINK-4789,1 53868U 22114BC  23124.58335648 -.00074574  00000-0 -47113-2 0  9991,2 53868  53.2175 253.2471 0001303  90.1422 250.9589 15.08880259  1302,6917.757,95.435,540.524,538.721,0.0
53868.0,STARLINK-4789,PAYLOAD,2023-05-04 16:00:01,15.08874409,0.0001296,53.2175,252.8734,86.571,347.441,-0.0051001,-0.00080623,0.0,0 STARLINK-4789,1 53868U 22114BC  23124.66668981 -.00080623  00000-0 -51001-2 0  9992,2 53868  53.2175 252.8734 0001296  86.5710 347.4410 15.08874409 35840,6917.775,95.435,540.537,538.744,0.0
53868.0,STARLINK-4789,PAYLOAD,2023-05-04 22:00:01,15.08825253,0.000113,53.2171,251.7508,83.4566,269.2631,6.4379e-05,7.37e-06,0.0,0 STARLINK-4789,1 53868U 22114BC  23124.91668981  .00000737  00000-0  64379-4 0  9990,2 53868  53.2171 251.7508 0001130  83.4566 269.2631 15.08825253  1308,6917.925,95.438,540.572,539.009,0.0
53868.0,STARLINK-4789,PAYLOAD,2023-05-05 10:00:00,15.08858689,0.0001139,53.2176,249.5056,97.6186,92.4106,-0.00049615,-8.179e-05,0.0,0 STARLINK-4789,1 53868U 22114BC  23125.41667824 -.00008179  00000-0 -49615-3 0  9996,2 53868  53.2176 249.5056 0001139  97.6186  92.4106 15.08858689 35950,6917.823,95.436,540.476,538.9,0.0
53868.0,STARLINK-4789,PAYLOAD,2023-05-05 22:00:00,15.0882666,0.000104,53.2169,247.2619,90.9881,296.4519,-0.00014805,-2.642e-05,0.0,0 STARLINK-4789,1 53868U 22114BC  23125.91667824 -.00002642  00000-0 -14805-3 0  9993,2 53868  53.2169 247.2619 0001040  90.9881 296.4519 15.08826660  1301,6917.921,95.438,540.506,539.067,0.0
53868.0,STARLINK-4789,PAYLOAD,2023-05-06 16:00:00,15.08843708,0.0001056,53.217,243.8959,82.9454,60.5789,-0.002891,-0.00046008,0.0,0 STARLINK-4789,1 53868U 22114BC  23126.66667824 -.00046008  00000-0 -28910-2 0  9991,2 53868  53.2170 243.8959 0001056  82.9454  60.5789 15.08843708  1307,6917.869,95.437,540.465,539.004,0.0
53868.0,STARLINK-4789,PAYLOAD,2023-05-07 00:00:00,15.08831162,0.0001002,53.2167,242.3986,75.8268,79.293,0.00014469,2.015e-05,0.0,0 STARLINK-4789,1 53868U 22114BC  23127.00001157  .00002015  00000-0  14469-3 0  9994,2 53868  53.2167 242.3986 0001002  75.8268  79.2930 15.08831162 36193,6917.907,95.438,540.466,539.079,0.0
53868.0,STARLINK-4789,PAYLOAD,2023-05-07 13:37:25,15.08840608,0.0001092,53.2179,239.8482,83.8423,276.2694,-3.4054e-05,-8.3e-06,0.0,0 STARLINK-4789,1 53868U 22114BC  23127.56765311 -.00000830  00000-0 -34054-4 0  9992,2 53868  53.2179 239.8482 0001092  83.8423 276.2694 15.08840608 36820,6917.879,95.438,540.499,538.988,0.0
53868.0,STARLINK-4789,PAYLOAD,2023-05-07 15:12:48,15.08842309,0.0001152,53.2177,239.5496,91.6074,268.505,-1.622e-05,-5.46e-06,0.0,0 STARLINK-4789,1 53868U 22114BC  23127.63389100 -.00000546  00000-0 -16220-4 0  9997,2 53868  53.2177 239.5496 0001152  91.6074 268.5050 15.08842309 36837,6917.873,95.437,540.535,538.941,0.0
53868.0,STARLINK-4789,PAYLOAD,2023-05-08 00:45:06,15.08844915,9.98e-05,53.217,237.769,79.4365,280.6739,-4.9469e-05,-1.075e-05,0.0,0 STARLINK-4789,1 53868U 22114BC  23128.03132950 -.00001075  00000-0 -49469-4 0  9990,2 53868  53.2170 237.7690 0000998  79.4365 280.6739 15.08844915 36351,6917.865,95.437,540.421,539.04,0.0
53868.0,STARLINK-4789,PAYLOAD,2023-05-08 13:28:12,15.08834925,8.62e-05,53.2174,235.3881,88.5078,271.6013,-4.2156e-06,-3.55e-06,0.0,0 STARLINK-4789,1 53868U 22114BC  23128.56125430 -.00000355  00000-0 -42156-5 0  9990,2 53868  53.2174 235.3881 0000862  88.5078 271.6013 15.08834925 36437,6917.896,95.438,540.357,539.165,0.0
